ONEWEB-0156             
1 48052U 21025L   26160.72893166  .00000147  00000+0  36800-3 0  9997
2 48052  87.8956 321.7036 0001910  97.4570 262.6776 13.13470948252598
ONEWEB-0161             
1 48053U 21025M   26160.70353652 -.00000307  00000+0 -87570-3 0  9997
2 48053  87.8952 321.7098 0001934  99.1599 260.9749 13.13470575252529
ONEWEB-0158             
1 48054U 21025N   26160.73910227  .00000395  00000+0  10461-2 0  9997
2 48054  87.8956 321.7000 0001604  91.0647 269.0666 13.13471335252653
ONEWEB-0157             
1 48055U 21025P   26160.68830879 -.00000004  00000+0 -46634-4 0  9998
2 48055  87.8954 321.7160 0001927 106.6082 253.5259 13.13469186252582
ONEWEB-0162             
1 48056U 21025Q   26160.74064809  .00000352  00000+0  92899-3 0  9995
2 48056  87.8953 321.7066 0001982  94.0832 266.0524 13.13469970252564
ONEWEB-0155             
1 48057U 21025R   26160.67137528  .00000364  00000+0  96216-3 0  9997
2 48057  87.8953 321.7164 0001709 100.1324 259.9998 13.13469635252694
ONEWEB-0149             
1 48058U 21025S   26160.69338420 -.00000146  00000+0 -43518-3 0  9991
2 48058  87.8956 321.7152 0002027  93.7122 266.4239 13.13469678252500
ONEWEB-0148             
1 48059U 21025T   26160.73231937  .00000248  00000+0  64420-3 0  9998
2 48059  87.8947 321.7151 0002397  96.2608 263.8795 13.13470385252636
ONEWEB-0160             
1 48060U 21025U   26160.74924755  .00000313  00000+0  82225-3 0  9994
2 48060  87.8950 321.7077 0001636  70.1596 289.9710 13.13470357252580
ONEWEB-0163             
1 48061U 21025V   26160.73400801  .00000309  00000+0  81129-3 0  9992
2 48061  87.8954 321.7047 0001866 104.0435 256.0902 13.13471095252708
ONEWEB-0159             
1 48062U 21025W   26160.72554414  .00000098  00000+0  23273-3 0  9993
2 48062  87.8957 321.7000 0001826 102.8292 257.3042 13.13471224252628
ONEWEB-0164             
1 48063U 21025X   26160.70691738 -.00000225  00000+0 -65039-3 0  9993
2 48063  87.8960 321.7101 0001754  92.9703 267.1627 13.13469987252600
ONEWEB-0167             
1 48064U 21025Y   26160.73484258  .00000331  00000+0  87011-3 0  9994
2 48064  87.8946 321.7149 0001444 115.4551 244.6728 13.13472190252595
ONEWEB-0166             
1 48065U 21025Z   26160.68152283  .00000163  00000+0  41215-3 0  9998
2 48065  87.8959 321.6961 0001994  96.9112 263.2244 13.13470910252663
ONEWEB-0151             
1 48066U 21025AA  26160.68321828  .00000137  00000+0  34119-3 0  9998
2 48066  87.8948 321.7132 0001685  96.8178 263.3143 13.13469575252609
ONEWEB-0170             
1 48067U 21025AB  26160.69168309 -.00000120  00000+0 -36361-3 0  9998
2 48067  87.8950 321.7132 0001393  87.4832 272.6457 13.13469600252567
ONEWEB-0168             
1 48068U 21025AC  26160.67645113  .00000282  00000+0  73620-3 0  9996
2 48068  87.8958 321.7158 0001895 100.2689 259.8654 13.13469522252575
ONEWEB-0173             
1 48069U 21025AD  26160.74416732  .00000395  00000+0  10474-2 0  9990
2 48069  87.8951 321.7045 0001768 107.2990 252.8333 13.13470111252826
ONEWEB-0171             
1 48070U 21025AE  26160.70522705 -.00000292  00000+0 -83384-3 0  9995
2 48070  87.8947 321.7205 0001714  95.0540 265.0785 13.13470434252631
ONEWEB-0172             
1 48071U 21025AF  26160.68491112  .00000086  00000+0  19953-3 0  9990
2 48071  87.8954 321.7140 0001697  99.7857 260.3464 13.13470420253526
ONEWEB-0174             
1 48072U 21025AG  26160.74248215  .00000411  00000+0  10910-2 0  9997
2 48072  87.8951 321.7020 0001957  96.3596 263.7756 13.13470613252853
ONEWEB-0175             
1 48073U 21025AH  26160.69676623 -.00000160  00000+0 -47384-3 0  9999
2 48073  87.8959 321.6947 0001464  96.4427 263.6869 13.13469982252509
ONEWEB-0177             
1 48074U 21025AJ  26160.48007895 -.00000251  00000+0 -72219-3 0  9992
2 48074  87.8955 321.7570 0001981 100.1318 260.0035 13.13471022252666
ONEWEB-0178             
1 48075U 21025AK  26160.72736068  .00000086  00000+0  19956-3 0  9994
2 48075  87.8940 321.7213 0001613 102.1212 258.0098 13.13472275252748
ONEWEB-0108             
1 48076U 21025AL  26160.68660757  .00000060  00000+0  12849-3 0  9997
2 48076  87.8959 321.7067 0001948  89.1030 271.0322 13.13469565252663
ONEWEB-0169             
1 48077U 21025AM  26160.71876947 -.00000067  00000+0 -21719-3 0  9997
2 48077  87.8950 321.7090 0001939  95.9138 264.2212 13.13470741251327
ONEWEB-0176             
1 48210U 21031A   26160.71945071  .00000094  00000+0  21840-3 0  9991
2 48210  87.8957 291.1878 0001822 102.8282 257.3052 13.14503401247338
ONEWEB-0184             
1 48211U 21031B   26160.61636606 -.00000174  00000+0 -50361-3 0  9993
2 48211  87.8964 291.2087 0001238 119.4335 240.6918 13.14502787247291
ONEWEB-0179             
1 48212U 21031C   26160.72452040  .00000191  00000+0  57718-4 0  9995
2 48212  87.8984 288.7690 0218640 281.8049  75.8695 14.25517907247987
ONEWEB-0180             
1 48213U 21031D   26160.61954165 -.00000128  00000+0 -37973-3 0  9991
2 48213  87.8964 291.2044 0002024 113.0829 247.0514 13.14502893247222
ONEWEB-0218             
1 48214U 21031E   26160.71786079  .00000035  00000+0  60856-4 0  9992
2 48214  87.8965 291.1837 0001503 128.2662 231.8603 13.14501990247392
ONEWEB-0209             
1 48215U 21031F   26160.63062619 -.00000060  00000+0 -19566-3 0  9992
2 48215  87.8956 291.2188 0002042 105.3320 254.8036 13.14505653247383
ONEWEB-0198             
1 48216U 21031G   26160.61492331 -.00000130  00000+0 -38587-3 0  9991
2 48216  87.8950 291.2217 0001871 113.7498 246.3828 13.14502733247492
ONEWEB-0189             
1 48217U 21031H   26160.62747270 -.00000134  00000+0 -39572-3 0  9997
2 48217  87.8961 291.2046 0001868 110.7535 249.3795 13.14503113247231
ONEWEB-0196             
1 48218U 21031J   26160.60527267 -.00000006  00000+0 -50945-4 0  9994
2 48218  87.8962 291.2182 0001926 104.9698 255.1645 13.14502758247237
ONEWEB-0183             
1 48219U 21031K   26160.65602111  .00000257  00000+0  65826-3 0  9991
2 48219  87.8957 291.2062 0002070  97.8171 262.3194 13.14503146247338
ONEWEB-0185             
1 48220U 21031L   26160.60605545 -.00000044  00000+0 -15225-3 0  9996
2 48220  87.8967 291.2091 0002281 104.5059 255.6324 13.14502437247251
ONEWEB-0187             
1 48221U 21031M   26160.73834470  .00000256  00000+0  65650-3 0  9992
2 48221  87.8953 291.1992 0002054 105.8628 254.2729 13.14502177247288
ONEWEB-0192             
1 48222U 21031N   26160.63221219 -.00000050  00000+0 -16911-3 0  9993
2 48222  87.8955 291.2106 0001825 102.7356 257.3978 13.14505103247189
ONEWEB-0219             
1 48223U 21031P   26160.61159916 -.00000128  00000+0 -38074-3 0  9996
2 48223  87.8957 291.2065 0002105 105.0140 255.1223 13.14504328247384
ONEWEB-0202             
1 48224U 21031Q   26160.59259049  .00000198  00000+0  49949-3 0  9990
2 48224  87.8961 291.2225 0001567 120.9278 239.2006 13.14502410247367
ONEWEB-0204             
1 48225U 21031R   26160.39832809 -.00000065  00000+0 -21079-3 0  9999
2 48225  87.8960 291.2559 0002210  96.7556 263.3825 13.14502747247238
ONEWEB-0205             
1 48226U 21031S   26160.60208951 -.00000002  00000+0 -39171-4 0  9993
2 48226  87.8969 291.2079 0002012 107.5910 252.5440 13.14505213247278
ONEWEB-0206             
1 48227U 21031T   26160.72737943  .00000211  00000+0  53589-3 0  9993
2 48227  87.8963 291.1848 0001808  94.8769 265.2567 13.14503832247241
ONEWEB-0182             
1 48228U 21031U   26160.72261989  .00000115  00000+0  27608-3 0  9992
2 48228  87.8957 291.1938 0002086  97.0085 263.1282 13.14502729247458
ONEWEB-0186             
1 48229U 21031V   26160.73371933  .00000183  00000+0  45825-3 0  9991
2 48229  87.8967 291.1814 0001940 103.1498 256.9848 13.14502490247406
ONEWEB-0181             
1 48230U 21031W   26160.63540393 -.00000027  00000+0 -10622-3 0  9996
2 48230  87.8948 291.2318 0001911 106.5086 253.6254 13.14503306247249
ONEWEB-0188             
1 48231U 21031X   26160.59734434  .00000153  00000+0  37888-3 0  9994
2 48231  87.8952 291.2384 0001928 100.8399 259.2948 13.14503640247142
ONEWEB-0220             
1 48232U 21031Y   26160.71308986 -.00000021  00000+0 -90369-4 0  9998
2 48232  87.8965 291.1872 0002145 106.2834 253.8532 13.14502286247429
ONEWEB-0165             
1 48233U 21031Z   26160.58940431  .00000241  00000+0  61633-3 0  9994
2 48233  87.8960 291.2253 0001795 112.4628 247.6692 13.14501140247368
ONEWEB-0199             
1 48234U 21031AA  26160.72579290  .00000208  00000+0  52596-3 0  9993
2 48234  87.8965 291.1834 0001859  94.8115 265.3227 13.14503189247280
ONEWEB-0203             
1 48235U 21031AB  26160.64016013  .00000085  00000+0  19514-3 0  9990
2 48235  87.8963 291.2042 0001722 100.3354 259.7970 13.14502441247280
ONEWEB-0197             
1 48236U 21031AC  26160.61464831 -.00000164  00000+0 -47590-3 0  9998
2 48236  87.8957 291.1959 0002166  99.4131 260.7243 13.14503968247194
ONEWEB-0194             
1 48237U 21031AD  26160.59417084  .00000218  00000+0  55387-3 0  9995
2 48237  87.8961 291.2217 0001700  95.2466 264.8858 13.14501985247369
ONEWEB-0193             
1 48238U 21031AE  26160.61002440 -.00000105  00000+0 -31797-3 0  9991
2 48238  87.8961 291.2091 0001598  88.8315 271.2998 13.14502767247317
ONEWEB-0191             
1 48239U 21031AF  26160.62113000 -.00000143  00000+0 -42155-3 0  9990
2 48239  87.8966 291.2051 0002071  97.0029 263.1336 13.14502662247174
ONEWEB-0195             
1 48240U 21031AG  26160.59812266  .00000105  00000+0  24769-3 0  9995
2 48240  87.8967 291.2105 0001872 112.2411 247.8918 13.14501509247152
ONEWEB-0201             
1 48241U 21031AH  26160.66249352  .00000181  00000+0  45471-3 0  9991
2 48241  87.8958 291.2142 0002185 100.2679 259.8698 13.14504142247395
ONEWEB-0207             
1 48242U 21031AJ  26160.71865456  .00000026  00000+0  35419-4 0  9997
2 48242  87.8964 291.1873 0002170 101.1317 259.0057 13.14502849247311
